GLOBALSTAR M035         
1 25851U 99037A   24156.92585258 -.00000069  00000+0 -20368-3 0  9999
2 25851  51.9910 176.2866 0013052  91.2404 344.2127 11.04530990 54571
GLOBALSTAR M032         
1 25852U 99037B   24157.02857572 -.00000022  00000+0  14428-2 0  9990
2 25852  51.9981  27.2784 0009280 251.5928 108.3863 11.19054099 92614
GLOBALSTAR M051         
1 25853U 99037C   24156.96153558 -.00000021  00000+0  12432-2 0  9998
2 25853  51.9783 230.8971 0001490 243.5499 116.5159 11.42198461 89303
GLOBALSTAR M030         
1 25854U 99037D   24156.44528624 -.00000105  00000+0 -63999-3 0  9991
2 25854  51.9893  62.2652 0004229  86.7869 273.3432 11.55095082106394
GLOBALSTAR M048         
1 25872U 99041A   24156.74050664 -.00000056  00000+0  38838-3 0  9991
2 25872  51.9329 151.8674 0013739 252.5458 278.3055 11.33846806 82168
GLOBALSTAR M026         
1 25873U 99041B   24156.63672809 -.00000115  00000+0 -18670-2 0  9999
2 25873  52.0028 298.8646 0001011   3.9393   8.9664 11.06834420106680
GLOBALSTAR M043         
1 25874U 99041C   24156.51152111 -.00000111  00000+0 -12696-2 0  9994
2 25874  51.9396 245.0043 0012045  29.0616 344.5013 11.25679820 80341
GLOBALSTAR M028         
1 25875U 99041D   24157.14705963 -.00000071  00000+0  18938-3 0  9994
2 25875  51.9617 237.3102 0062947 332.7077  27.0483 12.50556824143036
